0 FENGYUN 1C DEB
1 38122U 99025EPT 13282.02224612  .00001052  00000-0  29434-3 0   619
2 38122 098.7133 304.7389 0267037 049.1674 313.2316 14.29404997160835
0 FENGYUN 1C DEB
1 38122U 99025EPT 13287.90200263  .00001221  00000-0  33913-3 0   623
2 38122 098.7137 310.6279 0267357 032.1741 329.5985 14.29421531161673
0 FENGYUN 1C DEB
1 38122U 99025EPT 13289.02193336  .00001293  00000-0  35798-3 0   633
2 38122 098.7142 311.7500 0267576 028.9384 332.6637 14.29426064161830
0 FENGYUN 1C DEB
1 38122U 99025EPT 13293.85163275  .00001356  00000-0  37629-3 0   644
2 38122 098.7167 316.5878 0266398 015.3348 345.5944 14.29440438162521
0 FENGYUN 1C DEB
1 38122U 99025EPT 13295.32152644  .00001503  00000-0  41555-3 0   654
2 38122 098.7115 318.0512 0266154 010.6488 350.0605 14.29447546162734
